place_name,address_name,road_address_name,x,y
다이소 홈플러스강동점,서울 강동구 천호동 42,서울 강동구 양재대로 1571,127.142236667784,37.5455490055326
이마트 명일점,서울 강동구 명일동 46-4,서울 강동구 고덕로 276,127.155987297642,37.5546046874526
다이소 GS슈퍼명일점,서울 강동구 명일동 312-111,서울 강동구 양재대로 1630,127.144929919266,37.5508526089179
다이소 길동점,서울 강동구 길동 366-5,서울 강동구 양재대로 1490,127.140647847353,37.5388817143272
현대자동차블루핸즈 명일점,서울 강동구 명일동 344-10,서울 강동구 상암로 197,127.144469130493,37.5466437112884
다비치안경 명일역점,서울 강동구 천호동 24-6,서울 강동구 양재대로 1621,127.14365110731192,37.550245998207494
기아오토큐 길동점,서울 강동구 천호동 51-4,서울 강동구 양재대로 1523,127.141142264748,37.5418616299187
모즈토리 굽은다리역점,서울 강동구 명일동 346-4,서울 강동구 상암로 196,127.144165008838,37.5462007918233
구천면주유소,서울 강동구 암사동 425-187,서울 강동구 구천면로 357,127.13823313239435,37.5504542887948
다이소 고덕점,서울 강동구 명일동 47-6,서울 강동구 동남로75길 13-7,127.155569529838,37.5539817487336
리안헤어 명일역점,서울 강동구 명일동 325-11,서울 강동구 구천면로 424,127.14568376875353,37.550354330526424
알파 명일동점,서울 강동구 명일동 332,서울 강동구 양재대로138길 32,127.145805349769,37.5494459747462
강동구민회관,서울 강동구 천호동 41,서울 강동구 상암로 168,127.14118014203885,37.54574669110065
숯불돼지갈비마포집,서울 강동구 명일동 346-6,서울 강동구 상암로 200,127.1445497042659,37.546176895571215
으뜸50안경 명일역점,서울 강동구 명일동 312-94,서울 강동구 양재대로 1640,127.1442552840043,37.55194184005671
준오헤어 길동역점,서울 강동구 길동 391-4,서울 강동구 양재대로 1484,127.140383871105,37.5380963568379
강동농협하나로마트,서울 강동구 암사동 487-33,서울 강동구 구천면로 331,127.136208364804,37.5490826200975
현대자동차블루핸즈 명일동부점,서울 강동구 명일동 230-7,서울 강동구 상암로 295,127.1553116992879,37.54644254035794
블루클럽 명일동점,서울 강동구 명일동 325-2,서울 강동구 구천면로 418,127.144974564411,37.5505317989573
드림디포 굽은다리역점,서울 강동구 명일동 353-3,서울 강동구 양재대로 1566,127.143230675351,37.5452072266034
GS25 명일센트럴점,서울 강동구 명일동 342-1,서울 강동구 양재대로134길 26,127.14500508548038,37.54759360741168
늘푸른정형외과의원,서울 강동구 천호동 30-5,서울 강동구 양재대로 1601,127.143332172658,37.5485732328036
이철헤어커커 강동홈플러스점,서울 강동구 천호동 42,서울 강동구 양재대로 1571,127.14238200703134,37.545810119915856
다비치안경 길동역점,서울 강동구 길동 367-4,서울 강동구 양재대로 1495,127.14030789153563,37.53921278553066
방아다리주유소,서울 강동구 명일동 216-5,서울 강동구 동남로 811,127.15553715681952,37.54602778443315
황푸차이나,서울 강동구 명일동 345-6,서울 강동구 양재대로 1590,127.143696660954,37.5474483442413
명일원조닭발,서울 강동구 명일동 325-16,서울 강동구 상암로47길 86,127.144643682193,37.5503051533352
GS25 길동오네뜨점,서울 강동구 길동 339-1,서울 강동구 양재대로124길 32,127.14347834749233,37.54277062553988
봄담한방병원 강동본원,서울 강동구 명일동 335-3,서울 강동구 양재대로 1596,127.14378387468228,37.54807893673425
CU 강동구민회관점,서울 강동구 천호동 43-61,서울 강동구 천중로43길 93,127.14189983353673,37.54515116946079
CU 천호햇살점,서울 강동구 천호동 28-28,서울 강동구 양재대로133길 41,127.141017886269,37.5479164887785
박승철헤어스투디오 명일역점,서울 강동구 명일동 312-98,서울 강동구 양재대로 1636,127.14429313916887,37.55161923671025
한샘키친&바스 강동갤러리대리점,서울 강동구 천호동 30-16,서울 강동구 양재대로 1595,127.143236026448,37.5480039187308
CU 강동해오름점,서울 강동구 명일동 352-4,서울 강동구 양재대로128길 13,127.143551607337,37.5449797852683
전주감자탕,서울 강동구 명일동 345-18,서울 강동구 상암로 191,127.14383979642,37.5465579837474
GS25 명일점,서울 강동구 명일동 315-13,서울 강동구 구천면로 427,127.14621020559,37.5504654035533
양도령숯불민물장어 본점,서울 강동구 천호동 51-12,서울 강동구 양재대로 1521,127.141191671246,37.5416597470736
풋살몬스터,서울 강동구 명일동 346-9,서울 강동구 양재대로130길 11,127.143641711073,37.5459392390325
GS25 길동삼익점,서울 강동구 길동 48,서울 강동구 명일로 275,127.1476558981926,37.543294362061125
워시엔조이 굽은다리역점,서울 강동구 길동 339-4,서울 강동구 천중로49길 32-17,127.144378160701,37.5423073163858
기아 명일대리점,서울 강동구 길동 348-6,서울 강동구 양재대로 1504,127.14098886220172,37.5397156331293
행복해,서울 강동구 명일동 343-1,서울 강동구 상암로49길 12,127.144990314221,37.5469782438241
만나하우스,서울 강동구 천호동 44-1,서울 강동구 양재대로 1553,127.142029639811,37.5443833626297
다래사우나,서울 강동구 명일동 306-7,서울 강동구 양재대로 1657-11,127.143382182971,37.5534133311619
GS25 명일솔베뉴점,서울 강동구 명일동 312-94,서울 강동구 양재대로 1640,127.144273514148,37.5520057886012
CU 천호햇살점,서울 강동구 천호동 28-28,서울 강동구 양재대로133길 41,127.141017886269,37.5479164887785
박승철헤어스투디오 명일역점,서울 강동구 명일동 312-98,서울 강동구 양재대로 1636,127.14429313916887,37.55161923671025
한샘키친&바스 강동갤러리대리점,서울 강동구 천호동 30-16,서울 강동구 양재대로 1595,127.143236026448,37.5480039187308
CU 강동해오름점,서울 강동구 명일동 352-4,서울 강동구 양재대로128길 13,127.143551607337,37.5449797852683
전주감자탕,서울 강동구 명일동 345-18,서울 강동구 상암로 191,127.14383979642,37.5465579837474
GS25 명일점,서울 강동구 명일동 315-13,서울 강동구 구천면로 427,127.14621020559,37.5504654035533
양도령숯불민물장어 본점,서울 강동구 천호동 51-12,서울 강동구 양재대로 1521,127.141191671246,37.5416597470736
풋살몬스터,서울 강동구 명일동 346-9,서울 강동구 양재대로130길 11,127.143641711073,37.5459392390325
GS25 길동삼익점,서울 강동구 길동 48,서울 강동구 명일로 275,127.1476558981926,37.543294362061125
워시엔조이 굽은다리역점,서울 강동구 길동 339-4,서울 강동구 천중로49길 32-17,127.144378160701,37.5423073163858
기아 명일대리점,서울 강동구 길동 348-6,서울 강동구 양재대로 1504,127.14098886220172,37.5397156331293
행복해,서울 강동구 명일동 343-1,서울 강동구 상암로49길 12,127.144990314221,37.5469782438241
만나하우스,서울 강동구 천호동 44-1,서울 강동구 양재대로 1553,127.142029639811,37.5443833626297
다래사우나,서울 강동구 명일동 306-7,서울 강동구 양재대로 1657-11,127.143382182971,37.5534133311619
GS25 명일솔베뉴점,서울 강동구 명일동 312-94,서울 강동구 양재대로 1640,127.144273514148,37.5520057886012
CU 천호햇살점,서울 강동구 천호동 28-28,서울 강동구 양재대로133길 41,127.141017886269,37.5479164887785
박승철헤어스투디오 명일역점,서울 강동구 명일동 312-98,서울 강동구 양재대로 1636,127.14429313916887,37.55161923671025
한샘키친&바스 강동갤러리대리점,서울 강동구 천호동 30-16,서울 강동구 양재대로 1595,127.143236026448,37.5480039187308
CU 강동해오름점,서울 강동구 명일동 352-4,서울 강동구 양재대로128길 13,127.143551607337,37.5449797852683
전주감자탕,서울 강동구 명일동 345-18,서울 강동구 상암로 191,127.14383979642,37.5465579837474
GS25 명일점,서울 강동구 명일동 315-13,서울 강동구 구천면로 427,127.14621020559,37.5504654035533
양도령숯불민물장어 본점,서울 강동구 천호동 51-12,서울 강동구 양재대로 1521,127.141191671246,37.5416597470736
풋살몬스터,서울 강동구 명일동 346-9,서울 강동구 양재대로130길 11,127.143641711073,37.5459392390325
GS25 길동삼익점,서울 강동구 길동 48,서울 강동구 명일로 275,127.1476558981926,37.543294362061125
워시엔조이 굽은다리역점,서울 강동구 길동 339-4,서울 강동구 천중로49길 32-17,127.144378160701,37.5423073163858
기아 명일대리점,서울 강동구 길동 348-6,서울 강동구 양재대로 1504,127.14098886220172,37.5397156331293
행복해,서울 강동구 명일동 343-1,서울 강동구 상암로49길 12,127.144990314221,37.5469782438241
만나하우스,서울 강동구 천호동 44-1,서울 강동구 양재대로 1553,127.142029639811,37.5443833626297
다래사우나,서울 강동구 명일동 306-7,서울 강동구 양재대로 1657-11,127.143382182971,37.5534133311619
GS25 명일솔베뉴점,서울 강동구 명일동 312-94,서울 강동구 양재대로 1640,127.144273514148,37.5520057886012
CU 천호햇살점,서울 강동구 천호동 28-28,서울 강동구 양재대로133길 41,127.141017886269,37.5479164887785
박승철헤어스투디오 명일역점,서울 강동구 명일동 312-98,서울 강동구 양재대로 1636,127.14429313916887,37.55161923671025
한샘키친&바스 강동갤러리대리점,서울 강동구 천호동 30-16,서울 강동구 양재대로 1595,127.143236026448,37.5480039187308
CU 강동해오름점,서울 강동구 명일동 352-4,서울 강동구 양재대로128길 13,127.143551607337,37.5449797852683
전주감자탕,서울 강동구 명일동 345-18,서울 강동구 상암로 191,127.14383979642,37.5465579837474
GS25 명일점,서울 강동구 명일동 315-13,서울 강동구 구천면로 427,127.14621020559,37.5504654035533
양도령숯불민물장어 본점,서울 강동구 천호동 51-12,서울 강동구 양재대로 1521,127.141191671246,37.5416597470736
풋살몬스터,서울 강동구 명일동 346-9,서울 강동구 양재대로130길 11,127.143641711073,37.5459392390325
GS25 길동삼익점,서울 강동구 길동 48,서울 강동구 명일로 275,127.1476558981926,37.543294362061125
워시엔조이 굽은다리역점,서울 강동구 길동 339-4,서울 강동구 천중로49길 32-17,127.144378160701,37.5423073163858
기아 명일대리점,서울 강동구 길동 348-6,서울 강동구 양재대로 1504,127.14098886220172,37.5397156331293
행복해,서울 강동구 명일동 343-1,서울 강동구 상암로49길 12,127.144990314221,37.5469782438241
만나하우스,서울 강동구 천호동 44-1,서울 강동구 양재대로 1553,127.142029639811,37.5443833626297
다래사우나,서울 강동구 명일동 306-7,서울 강동구 양재대로 1657-11,127.143382182971,37.5534133311619
GS25 명일솔베뉴점,서울 강동구 명일동 312-94,서울 강동구 양재대로 1640,127.144273514148,37.5520057886012
CU 천호햇살점,서울 강동구 천호동 28-28,서울 강동구 양재대로133길 41,127.141017886269,37.5479164887785
박승철헤어스투디오 명일역점,서울 강동구 명일동 312-98,서울 강동구 양재대로 1636,127.14429313916887,37.55161923671025
한샘키친&바스 강동갤러리대리점,서울 강동구 천호동 30-16,서울 강동구 양재대로 1595,127.143236026448,37.5480039187308
CU 강동해오름점,서울 강동구 명일동 352-4,서울 강동구 양재대로128길 13,127.143551607337,37.5449797852683
전주감자탕,서울 강동구 명일동 345-18,서울 강동구 상암로 191,127.14383979642,37.5465579837474
GS25 명일점,서울 강동구 명일동 315-13,서울 강동구 구천면로 427,127.14621020559,37.5504654035533
양도령숯불민물장어 본점,서울 강동구 천호동 51-12,서울 강동구 양재대로 1521,127.141191671246,37.5416597470736
풋살몬스터,서울 강동구 명일동 346-9,서울 강동구 양재대로130길 11,127.143641711073,37.5459392390325
GS25 길동삼익점,서울 강동구 길동 48,서울 강동구 명일로 275,127.1476558981926,37.543294362061125
워시엔조이 굽은다리역점,서울 강동구 길동 339-4,서울 강동구 천중로49길 32-17,127.144378160701,37.5423073163858
기아 명일대리점,서울 강동구 길동 348-6,서울 강동구 양재대로 1504,127.14098886220172,37.5397156331293
행복해,서울 강동구 명일동 343-1,서울 강동구 상암로49길 12,127.144990314221,37.5469782438241
만나하우스,서울 강동구 천호동 44-1,서울 강동구 양재대로 1553,127.142029639811,37.5443833626297
다래사우나,서울 강동구 명일동 306-7,서울 강동구 양재대로 1657-11,127.143382182971,37.5534133311619
GS25 명일솔베뉴점,서울 강동구 명일동 312-94,서울 강동구 양재대로 1640,127.144273514148,37.5520057886012
CU 천호햇살점,서울 강동구 천호동 28-28,서울 강동구 양재대로133길 41,127.141017886269,37.5479164887785
박승철헤어스투디오 명일역점,서울 강동구 명일동 312-98,서울 강동구 양재대로 1636,127.14429313916887,37.55161923671025
한샘키친&바스 강동갤러리대리점,서울 강동구 천호동 30-16,서울 강동구 양재대로 1595,127.143236026448,37.5480039187308
CU 강동해오름점,서울 강동구 명일동 352-4,서울 강동구 양재대로128길 13,127.143551607337,37.5449797852683
전주감자탕,서울 강동구 명일동 345-18,서울 강동구 상암로 191,127.14383979642,37.5465579837474
GS25 명일점,서울 강동구 명일동 315-13,서울 강동구 구천면로 427,127.14621020559,37.5504654035533
양도령숯불민물장어 본점,서울 강동구 천호동 51-12,서울 강동구 양재대로 1521,127.141191671246,37.5416597470736
풋살몬스터,서울 강동구 명일동 346-9,서울 강동구 양재대로130길 11,127.143641711073,37.5459392390325
GS25 길동삼익점,서울 강동구 길동 48,서울 강동구 명일로 275,127.1476558981926,37.543294362061125
워시엔조이 굽은다리역점,서울 강동구 길동 339-4,서울 강동구 천중로49길 32-17,127.144378160701,37.5423073163858
기아 명일대리점,서울 강동구 길동 348-6,서울 강동구 양재대로 1504,127.14098886220172,37.5397156331293
행복해,서울 강동구 명일동 343-1,서울 강동구 상암로49길 12,127.144990314221,37.5469782438241
만나하우스,서울 강동구 천호동 44-1,서울 강동구 양재대로 1553,127.142029639811,37.5443833626297
다래사우나,서울 강동구 명일동 306-7,서울 강동구 양재대로 1657-11,127.143382182971,37.5534133311619
GS25 명일솔베뉴점,서울 강동구 명일동 312-94,서울 강동구 양재대로 1640,127.144273514148,37.5520057886012
CU 천호햇살점,서울 강동구 천호동 28-28,서울 강동구 양재대로133길 41,127.141017886269,37.5479164887785
박승철헤어스투디오 명일역점,서울 강동구 명일동 312-98,서울 강동구 양재대로 1636,127.14429313916887,37.55161923671025
한샘키친&바스 강동갤러리대리점,서울 강동구 천호동 30-16,서울 강동구 양재대로 1595,127.143236026448,37.5480039187308
CU 강동해오름점,서울 강동구 명일동 352-4,서울 강동구 양재대로128길 13,127.143551607337,37.5449797852683
전주감자탕,서울 강동구 명일동 345-18,서울 강동구 상암로 191,127.14383979642,37.5465579837474
GS25 명일점,서울 강동구 명일동 315-13,서울 강동구 구천면로 427,127.14621020559,37.5504654035533
양도령숯불민물장어 본점,서울 강동구 천호동 51-12,서울 강동구 양재대로 1521,127.141191671246,37.5416597470736
풋살몬스터,서울 강동구 명일동 346-9,서울 강동구 양재대로130길 11,127.143641711073,37.5459392390325
GS25 길동삼익점,서울 강동구 길동 48,서울 강동구 명일로 275,127.1476558981926,37.543294362061125
워시엔조이 굽은다리역점,서울 강동구 길동 339-4,서울 강동구 천중로49길 32-17,127.144378160701,37.5423073163858
기아 명일대리점,서울 강동구 길동 348-6,서울 강동구 양재대로 1504,127.14098886220172,37.5397156331293
행복해,서울 강동구 명일동 343-1,서울 강동구 상암로49길 12,127.144990314221,37.5469782438241
만나하우스,서울 강동구 천호동 44-1,서울 강동구 양재대로 1553,127.142029639811,37.5443833626297
다래사우나,서울 강동구 명일동 306-7,서울 강동구 양재대로 1657-11,127.143382182971,37.5534133311619
GS25 명일솔베뉴점,서울 강동구 명일동 312-94,서울 강동구 양재대로 1640,127.144273514148,37.5520057886012
CU 천호햇살점,서울 강동구 천호동 28-28,서울 강동구 양재대로133길 41,127.141017886269,37.5479164887785
박승철헤어스투디오 명일역점,서울 강동구 명일동 312-98,서울 강동구 양재대로 1636,127.14429313916887,37.55161923671025
한샘키친&바스 강동갤러리대리점,서울 강동구 천호동 30-16,서울 강동구 양재대로 1595,127.143236026448,37.5480039187308
CU 강동해오름점,서울 강동구 명일동 352-4,서울 강동구 양재대로128길 13,127.143551607337,37.5449797852683
전주감자탕,서울 강동구 명일동 345-18,서울 강동구 상암로 191,127.14383979642,37.5465579837474
GS25 명일점,서울 강동구 명일동 315-13,서울 강동구 구천면로 427,127.14621020559,37.5504654035533
양도령숯불민물장어 본점,서울 강동구 천호동 51-12,서울 강동구 양재대로 1521,127.141191671246,37.5416597470736
풋살몬스터,서울 강동구 명일동 346-9,서울 강동구 양재대로130길 11,127.143641711073,37.5459392390325
GS25 길동삼익점,서울 강동구 길동 48,서울 강동구 명일로 275,127.1476558981926,37.543294362061125
워시엔조이 굽은다리역점,서울 강동구 길동 339-4,서울 강동구 천중로49길 32-17,127.144378160701,37.5423073163858
기아 명일대리점,서울 강동구 길동 348-6,서울 강동구 양재대로 1504,127.14098886220172,37.5397156331293
행복해,서울 강동구 명일동 343-1,서울 강동구 상암로49길 12,127.144990314221,37.5469782438241
만나하우스,서울 강동구 천호동 44-1,서울 강동구 양재대로 1553,127.142029639811,37.5443833626297
다래사우나,서울 강동구 명일동 306-7,서울 강동구 양재대로 1657-11,127.143382182971,37.5534133311619
GS25 명일솔베뉴점,서울 강동구 명일동 312-94,서울 강동구 양재대로 1640,127.144273514148,37.5520057886012
