place_name,address_name,road_address_name,x,y
미스사이공 고덕푸르지오점,서울 강동구 고덕동 210-1,서울 강동구 고덕로 399,127.17005218232619,37.55753693312697
버거타임,서울 강동구 고덕동 210-1,서울 강동구 고덕로 399,127.17042126747087,37.5575940647314
가츠몽 상일역점,서울 강동구 고덕동 193,서울 강동구 상일로15길 34,127.169327166229,37.5582335442234
덮밥 장사장 상일동역점,서울 강동구 고덕동 210-1,서울 강동구 고덕로 399,127.16967848081,37.5574401631642
공차 상일동역점,서울 강동구 고덕동 210-1,서울 강동구 고덕로 399,127.16960921275917,37.557338450104474
김밥천국,서울 강동구 성내동 429-2,서울 강동구 양재대로 1339,127.135007863291,37.5259535335651
김밥천국 성내점,서울 강동구 성내동 196-3,서울 강동구 천호대로170길 16,127.13305019543,37.5345657194664
신김밥천국,서울 강동구 강일동 679,서울 강동구 아리수로 427,127.174548721797,37.564832040307
김밥천국 길동점,서울 강동구 길동 355-1,서울 강동구 천중로52길 15,127.144184983934,37.5401208276461
맛있는김밥천국,서울 강동구 성내동 407-6,서울 강동구 천호대로170길 85,127.13186403135,37.5317460175277
김밥천국 둔촌2호점,서울 강동구 둔촌동 545,서울 강동구 명일로 117,127.142770941972,37.5296132809453
김밥천국 상일점,서울 강동구 고덕동 210-4,서울 강동구 고덕로83길 6,127.168859038654,37.5574197140294
김밥천국 암사역점,서울 강동구 암사동 512-17,서울 강동구 올림픽로 769,127.127224645344,37.5499503914436
김밥천국,서울 강동구 길동 99-2,서울 강동구 명일로 244,127.147109362989,37.5404163525404
김밥천국 천호점,서울 강동구 천호동 45-7,서울 강동구 양재대로 1543,127.14186521964,37.5436050974179
김밥천국 길동점,서울 강동구 길동 247,서울 강동구 진황도로 123,127.139997559895,37.5348135719878
김밥천국,서울 송파구 풍납동 230-15,서울 송파구 올림픽로51길 41,127.116967357964,37.5332826002186
포차천국 천호점,서울 강동구 천호동 415-14,서울 강동구 올림픽로70길 49,127.126457454031,37.5392716775932
린칭,서울 강동구 고덕동 694,서울 강동구 고덕로 385,127.16851938124286,37.55736253553968
이디야커피 강동고덕교차로점,서울 강동구 강일동 727,서울 강동구 고덕로 421,127.17245790352816,37.55735955145578
라홍방마라탕 상일역점,서울 강동구 고덕동 210-1,서울 강동구 고덕로 399,127.16967848081,37.5574401631642
뚜레쥬르 고덕그라시움점,서울 강동구 고덕동 693,서울 강동구 고덕로 353,127.16434756747832,37.556782768510836
이마트24 강일푸르내점,서울 강동구 상일동 524,서울 강동구 상일로12길 99,127.172924142936,37.5568498066027
GS25 고덕아르테온점,서울 강동구 상일동 520,서울 강동구 고덕로 380,127.168124722065,37.556499943608
본도시락 상일점,서울 강동구 상일동 524,서울 강동구 상일로12길 99,127.172924142936,37.5568498066027
GS25 메가스퀘어점,서울 강동구 고덕동 210-1,서울 강동구 고덕로 399,127.16967848081,37.5574401631642
GS25 강일리버점,서울 강동구 강일동 701,서울 강동구 아리수로94길 72,127.177100375317,37.5621360662859
본죽&비빔밥cafe 상일동역점,서울 강동구 고덕동 694,서울 강동구 고덕로 385,127.16847883879645,37.55745179203536
뚜레쥬르 상일동역점,서울 강동구 상일동 520,서울 강동구 고덕로 390,127.16848352162026,37.5565156500944
만나숯불구이,서울 강동구 강일동 675-1,서울 강동구 아리수로93길 27,127.173939103954,37.5655176962835
믿음소망사랑,서울 강동구 강일동 695,서울 강동구 고덕로97길 20,127.17998854588436,37.55920166063525
사누끼 고덕본점,서울 강동구 상일동 521,서울 강동구 상일로 55,127.16952765451198,37.553310211257156
세븐일레븐 고덕리앤파크점,서울 강동구 고덕동 197-5,서울 강동구 상일로 137,127.17079618684,37.5592153160573
GS25 강일9단지점,서울 강동구 강일동 699,서울 강동구 고덕로97길 29,127.17931929149614,37.559520730528384
상희가정식백반,서울 강동구 상일동 282-2,서울 강동구 상일로5길 27,127.171537423829,37.5488095302279
홍성원조화로구이 상일동점,서울 강동구 상일동 228,서울 강동구 상일로 41,127.172628225273,37.5507324711058
다이소 상일동역점,서울 강동구 고덕동 210-1,서울 강동구 고덕로 399,127.16967848081,37.5574401631642
CU 암사상암로점,서울 강동구 암사동 491-11,서울 강동구 상암로 69,127.130993270417,37.5487893893747
CU 암사상암로점 ATM,서울 강동구 암사동 491-11,서울 강동구 상암로 69,127.13097511704089,37.54876237956402
맘마미아김밥,서울 강동구 상일동 340,서울 강동구 천호대로221길 32,127.172821671925,37.5482526430331
이디야커피 고덕강일2지구점,서울 강동구 강일동 70-15,서울 강동구 아리수로93나길 76,127.17597722897729,37.572564957615604
방이샤브샤브 칼국수 암사점,서울 강동구 암사동 462-1,서울 강동구 올림픽로 824,127.129400571033,37.5543953508268
방이샤브샤브칼국수 상일점,서울 강동구 상일동 268-8,서울 강동구 상일로 23,127.172909781254,37.5491643236251
뚜레쥬르 명일역메가타운점,서울 강동구 명일동 325-11,서울 강동구 구천면로 424,127.145734622964,37.5503182278714
뚜레쥬르 카페강동역점,서울 강동구 천호동 447-15,서울 강동구 천호대로 1087,127.13268418281788,37.536162703419784
뚜레쥬르 천호역점,서울 강동구 천호동 454-15,서울 강동구 천호대로 1027,127.12639439036255,37.5381085545755
뚜레쥬르 암사역점,서울 강동구 암사동 501-2,서울 강동구 올림픽로 778,127.12784331595684,37.55041283613423
뚜레쥬르 강동강일점,서울 강동구 강일동 76-10,서울 강동구 아리수로93나길 38,127.17420685832158,37.57210627443326
뚜레쥬르 길동중앙점,서울 강동구 길동 390-1,서울 강동구 양재대로 1478,127.14023726549047,37.537751448172244
뚜레쥬르 둔촌대우점,서울 강동구 둔촌동 622,서울 강동구 명일로 166,127.144833440895,37.5337409560284
뚜레쥬르 둔촌동역점,서울 강동구 성내동 428-5,서울 강동구 양재대로 1355,127.13575726077715,37.52746996086046
뚜레쥬르 길동신명점,서울 강동구 길동 79-4,서울 강동구 명일로 263-1,127.147371041305,37.5422937082337
뚜레쥬르 천호시장점,서울 강동구 천호동 393-43,서울 강동구 구천면로 250,127.131457517455,37.5425035077096
뚜레쥬르 상일세종점,서울 강동구 상일동 501,서울 강동구 상일로10길 36,127.17391777099279,37.55098375898921
뚜레쥬르 암사라인점,서울 강동구 암사동 442,서울 강동구 고덕로 53,127.131139889001,37.554966466028
뚜레쥬르 리버파크10단지점,서울 강동구 강일동 695,서울 강동구 고덕로97길 20,127.179931991312,37.5592161627708
CU 고덕2단지점,서울 강동구 강일동 717,서울 강동구 고덕로 427,127.17294564932791,37.55832020098784
CU ATM 고덕2단지점,서울 강동구 강일동 717,서울 강동구 고덕로 427,127.173181031297,37.5587973839032
이삭토스트 강동구청역점,서울 강동구 성내동 320-7,서울 강동구 천호옛길 14,127.12132698572889,37.53070584478134
이삭토스트 명일역점,서울 강동구 명일동 324-1,서울 강동구 양재대로 1626,127.14413383968319,37.550582383069056
이삭토스트 강동성심병원점,서울 강동구 천호동 155-5,서울 강동구 성안로 155,127.13488656600119,37.53712310694886
이삭토스트 상일동역점,서울 강동구 고덕동 210-5,서울 강동구 고덕로 391,127.168999987544,37.5571888573018
이삭토스트 강일리버파크점,서울 강동구 강일동 675-4,서울 강동구 아리수로93길 9,127.17443200097868,37.56525838349474
이삭토스트 암사역점,서울 강동구 암사동 502-19,서울 강동구 올림픽로 779,127.127513340959,37.550687997272
이삭토스트 송파풍납점,서울 송파구 풍납동 406-1,서울 송파구 토성로 65,127.117264908508,37.5289421839163
이삭토스트 광나루점,서울 광진구 광장동 258-37,서울 광진구 광장로 47,127.102505392987,37.5470155594757
GS25 상일세종점,서울 강동구 상일동 501,서울 강동구 상일로10길 36,127.17430783937859,37.55083091526964
메가MGC커피 천호초교사거리점,서울 강동구 천호동 293-16,서울 강동구 구천면로 305,127.13434419367,37.5469872321073
순대실록 상일동점,서울 강동구 고덕동 210-1,서울 강동구 고덕로 399,127.17014718257592,37.55750706338525
프랭크버거 상일동점,서울 강동구 상일동 521,서울 강동구 상일로 55,127.16985694950459,37.553297124049344
프랭크버거 고덕점,서울 강동구 명일동 48-17,서울 강동구 동남로 877,127.155801963945,37.5520154664602
프랭크버거 고덕비즈밸리점,서울 강동구 고덕동 343-2,서울 강동구 고덕비즈밸리로 26,127.160158046657,37.5653488875304
프랭크버거 명일점,서울 강동구 명일동 325-11,서울 강동구 구천면로 424,127.145664604299,37.5503921960782
프랭크버거 하남점,경기 하남시 풍산동 517,경기 하남시 미사강변대로34번길 72,127.18765113380003,37.55574161876653
프랭크버거 하남미사점,경기 하남시 망월동 1129-2,경기 하남시 미사강변동로84번길 29,127.1948477319086,37.5630865916962
마루마당김밥,서울 강동구 천호동 386-11,서울 강동구 구천면로33길 24,127.12966544069,37.5426640649351
차오차오 강일점,서울 강동구 강일동 679-1,서울 강동구 아리수로 423,127.174258778314,37.5647531810459
우리들은,서울 강동구 상일동 524,서울 강동구 상일로12길 99,127.17299190627828,37.5567884395852
강동우리들요양병원,서울 강동구 천호동 420-6,서울 강동구 구천면로 202,127.127070910708,37.5400503836285
우리들약국,서울 강동구 암사동 502-20,서울 강동구 올림픽로 781,127.12763832278,37.5509806865118
우리들탁구클럽,서울 강동구 길동 335-3,서울 강동구 양재대로122가길 39,127.142875106512,37.543888595432
우리들클리닉 주차장,서울 강동구 암사동 502-20,서울 강동구 올림픽로 781,127.127638371947,37.5510095183865
우리들치과의원,서울 강동구 길동 391-2,서울 강동구 양재대로 1486,127.140542804215,37.5383772796618
우리들클리닉,서울 강동구 암사동 502-20,서울 강동구 올림픽로 781,127.127570429128,37.5509843638745
우리들단지내공인중개사사무소,서울 강동구 암사동 509,서울 강동구 상암로 11,127.125986282446,37.5510941844885
우리들 공인중개사사무소,서울 강동구 고덕동 165-10,서울 강동구 아리수로 376-2,127.170059534882,37.5617679996228
우리들생활과학,경기 하남시 풍산동 490-2,경기 하남시 미사강변서로 16,127.18453058262172,37.55192631109542
우리들 공인중개사사무소,서울 광진구 광장동 453-1,서울 광진구 아차산로 546,127.10197476149,37.5429290880142
윤앤윤이비인후과의원,서울 강동구 암사동 502-20,서울 강동구 올림픽로 781,127.1276066669313,37.55099874068163
늘푸른치과의원,서울 강동구 암사동 502-20,서울 강동구 올림픽로 781,127.127606666931,37.5509987406816
윤앤윤이비인후과의원 강동수면센터,서울 강동구 암사동 502-20,서울 강동구 올림픽로 781,127.12755011446426,37.55101682173955
또와분식,서울 강동구 명일동 15,서울 강동구 명일로 375,127.1494543205901,37.55199213669177
또와,서울 강동구 암사동 515-24,서울 강동구 상암로4길 22,127.126072030058,37.549596634524
굿찬,서울 강동구 고덕동 694,서울 강동구 고덕로 385,127.16841074061946,37.55736629453591
써브웨이 상일동점,서울 강동구 상일동 501-2,서울 강동구 상일로6길 21,127.17456437723445,37.5497105965775
맘스터치 천호로데오점,서울 강동구 천호동 453-24,서울 강동구 천호대로157길 26,127.12755199450643,37.53883711962933
맘스터치 강동역점,서울 강동구 천호동 158-3,서울 강동구 성안로 149,127.134714684539,37.5365496365484
맘스터치 굽은다리역점,서울 강동구 천호동 50-13,서울 강동구 양재대로 1539,127.141761390361,37.5431520197272
맘스터치 강동명일점,서울 강동구 명일동 327-1,서울 강동구 구천면로 428,127.146277548446,37.5501806048839
맘스터치 강동고덕점,서울 강동구 고덕동 645-7,서울 강동구 동남로81길 76,127.152768977889,37.5591823540406
맘스터치 둔촌동역점,서울 강동구 성내동 440,서울 강동구 양재대로 1319,127.13443906482,37.5241954271919
맘스터치 암사역점,서울 강동구 천호동 287-1,서울 강동구 올림픽로 766,127.1275543986,37.5495463886113
맘스터치 강동강일점,서울 강동구 강일동 675-1,서울 강동구 아리수로93길 27,127.17387484852469,37.565630415310785
맘스터치 송파풍납점,서울 송파구 풍납동 406-1,서울 송파구 토성로 65,127.11707494635,37.5290072444674
맘스터치 미사강변대로점,경기 하남시 풍산동 504-2,경기 하남시 미사강변대로 80,127.187853573288,37.5570378304518
GS25 암사역점,서울 강동구 암사동 502-6,서울 강동구 상암로 29,127.1269494890943,37.55052011824553
GS25 S8암사역점,서울 강동구 암사동 501,서울 강동구 올림픽로 지하 776,127.127541832166,37.5501410608145
이디야커피 천호로데오점,서울 강동구 천호동 454-15,서울 강동구 천호대로 1027,127.12614806668299,37.538308569598506
이디야커피 올림픽북문점,서울 강동구 성내동 448-7,서울 강동구 성안로 7,127.12888502014141,37.52445389921728
이디야커피 천호초교사거리점,서울 강동구 천호동 234-6,서울 강동구 구천면로 304,127.13469690834619,37.54679491764896
이디야커피 보훈병원점,서울 강동구 둔촌동 556,서울 강동구 명일로 110,127.14335310616,37.5287728428709
이디야커피 고덕그라시움후문점,서울 강동구 고덕동 225,서울 강동구 동남로82길 121,127.163654845638,37.5603642896582
이디야커피 길동사거리점,서울 강동구 성내동 378-2,서울 강동구 천호대로 1132,127.1369820967,37.5340710800713
이디야커피 명일중앙점,서울 강동구 명일동 347-3,서울 강동구 상암로 210,127.145926114351,37.546378828239
이디야 상일리엔파크점,서울 강동구 상일동 490,서울 강동구 상일로 74,127.174191480504,37.5514041212194
이디야커피 강동성내점,서울 강동구 성내동 518,서울 강동구 풍성로 162,127.12988881320513,37.53053455844329
이디야커피 암사중앙점,서울 강동구 암사동 479-13,서울 강동구 암사길 50,127.13475674330222,37.551745833075394
이디야커피 천호중앙점,서울 강동구 천호동 427-3,서울 강동구 올림픽로 660,127.12442356443455,37.5402694425218
이디야커피 고덕점,서울 강동구 명일동 47-4,서울 강동구 동남로75길 19,127.155157924629,37.5541444697912
이디야커피 천호현대점,서울 강동구 천호동 432-5,서울 강동구 올림픽로 665,127.123982293139,37.5409618741529
CU 고덕아르테온1상가점,서울 강동구 상일동 520,서울 강동구 고덕로 390,127.168769085047,37.5566765206248
스탁,서울 강동구 고덕동 186-6,서울 강동구 상일로21길 17,127.169757984445,37.5595591918325
CU 고덕아르테온점,서울 강동구 상일동 519,서울 강동구 고덕로80길 20,127.165292353785,37.5556552039511
CU 명일우량점,서울 강동구 명일동 48-12,서울 강동구 동남로71길 38,127.15405454993488,37.55196730340989
CU ATM 명일우량점,서울 강동구 명일동 48-12,서울 강동구 동남로71길 38,127.154067150465,37.55204116875
옛날통닭,서울 강동구 상일동 520,서울 강동구 고덕로 390,127.16877815121741,37.556681913644034
옛날통닭,서울 강동구 천호동 287-3,서울 강동구 상암로 44,127.128296928408,37.5496464959306
옛날통닭,서울 강동구 강일동 366-7,서울 강동구 아리수로97길 20,127.177713612106,37.5668095076128
옛날통닭 천호본점,서울 강동구 천호동 237-66,서울 강동구 구천면로 298,127.13412549246,37.5461873941837
예통옛날통닭 명일점,서울 강동구 명일동 312-86,서울 강동구 양재대로 1631,127.14380473065941,37.55127745349325
옛날산골통닭 성내점,서울 강동구 성내동 283-17,서울 강동구 풍성로39길 37,127.127300027817,37.5330547731964
옛날산골통닭,서울 강동구 암사동 488-30,서울 강동구 구천면로 323,127.1355338124,37.5484040437858
예통옛날통닭 천호점,서울 강동구 천호동 397-63,서울 강동구 구천면로 248,127.131242168881,37.5423001214663
쌍문동맥주다방 강동구청점,서울 강동구 성내동 557-5,서울 강동구 성안로3길 124,127.123405864062,37.5283061269421
이레,서울 강동구 암사동 505-7,서울 강동구 고덕로 32,127.128635878726,37.5545980097749
이레자원,서울 강동구 천호동 397-399,서울 강동구 구천면로 246,127.131199028574,37.5422190794905
이레정형외과의원,서울 강동구 강일동 722,서울 강동구 고덕로 433,127.17388765637756,37.55750521783245
강동이레약국,서울 강동구 성내동 380-16,서울 강동구 양재대로103길 5,127.137545391065,37.532758568853
이레,서울 강동구 고덕동 217,서울 강동구 고덕로 353,127.16456328339,37.5570933118261
이레안과의원,서울 강동구 천호동 401-5,서울 강동구 구천면로 233,127.130138907321,37.5416400091432
이레약국,서울 강동구 암사동 503-23,서울 강동구 올림픽로 787,127.12778414169046,37.55154635535304
이레빌라,서울 강동구 성내동 438-28,서울 강동구 양재대로87길 37,127.132971170039,37.52574140583
이레수선,서울 강동구 성내동 145-1,서울 강동구 천호대로162길 45-6,127.128380140394,37.5348195646502
이레엘림빌,서울 강동구 성내동 502-3,서울 강동구 성안로13길 28-14,127.131156565332,37.5321882956448
이레미용실,서울 강동구 암사동 469,서울 강동구 고덕로14길 57,127.131261724204,37.5521624269885
이레찬,서울 강동구 고덕동 217,서울 강동구 고덕로 353,127.164512443604,37.5571339275134
이레반찬,서울 강동구 암사동 414-18,서울 강동구 고덕로 133,127.140348141983,37.5552514066515
서울이레소망치과의원,서울 강동구 강일동 722,서울 강동구 고덕로 433,127.173887656378,37.5575052178324
이레인테리어,서울 강동구 천호동 305-14,서울 강동구 천중로15나길 19,127.129483229123,37.546570094255
최가네순대국,서울 강동구 암사동 464-2,서울 강동구 고덕로10길 49,127.12965745633379,37.55242729078899
바른짬뽕,서울 강동구 상일동 284-4,서울 강동구 상일로5길 9,127.172543715354,37.5489269957522
김가네 서울고덕점,서울 강동구 명일동 47-6,서울 강동구 동남로75길 13-7,127.15556689372171,37.55380245379968
김가네 올림픽공원북문점,서울 강동구 성내동 446-25,서울 강동구 성안로 10,127.12948051883046,37.524716340384344
김가네 명일역점,서울 강동구 명일동 312-42,서울 강동구 양재대로 1641,127.143854954355,37.5520900920457
김가네 고덕강일점,서울 강동구 강일동 76-10,서울 강동구 아리수로93나길 38,127.17406973561378,37.572040704135254
김가네 묘곡점,서울 강동구 고덕동 645-6,서울 강동구 동남로81길 78,127.152714431494,37.5590743050556
김가네 풍납점,서울 송파구 풍납동 405-3,서울 송파구 토성로 59,127.11684205787016,37.529113793243695
마노,서울 강동구 고덕동 201-1,서울 강동구 상일로 131,127.170855167504,37.5587755446429
컴포즈커피 상일동역1호점,서울 강동구 상일동 520,서울 강동구 고덕로 380,127.1681776872756,37.55639895657112
햇살약국,서울 강동구 명일동 48-13,서울 강동구 동남로71길 32,127.15446075312492,37.551933435834
리버마트,서울 강동구 강일동 699,서울 강동구 고덕로97길 29,127.17923122125113,37.55960826086094
봉평옹심이메밀칼국수,서울 강동구 천호동 427-53,서울 강동구 올림픽로72길 25,127.12522330529814,37.53945409365074
옹심이메밀칼국수,서울 강동구 상일동 268-2,서울 강동구 상일로 29-1,127.172825158436,37.54976270985
향토 옹심이메밀칼국수,서울 강동구 길동 227-1,서울 강동구 명일로 200-16,127.1466943826,37.5365173430492
봉평산골메밀촌 굽은다리역점,서울 강동구 천호동 43-43,서울 강동구 양재대로127길 21,127.14147009404293,37.54528863686437
고덕숲정원 고덕본점,서울 강동구 고덕동 191-1,서울 강동구 고덕로83길 36,127.168816666908,37.5587045952446
동네카페,서울 강동구 상일동 485,서울 강동구 상일로12길 54,127.174206369767,37.5548837493437
우리동네간식,서울 강동구 천호동 332-2,서울 강동구 올림픽로 715,127.125519350652,37.5452868474177
독도얼큰이 고덕점,서울 강동구 고덕동 185-7,서울 강동구 상일로19길 20,127.169796085038,37.5593915517888
세븐일레븐 강일리엔파크점,서울 강동구 상일동 490,서울 강동구 상일로 74,127.17401150951365,37.55382266253024
세븐일레븐 S명일역점,서울 강동구 명일동 312,서울 강동구 양재대로 지하 1632,127.144071251656,37.5515780617706
세븐일레븐 S고덕역점,서울 강동구 고덕동 310,서울 강동구 고덕로 지하 253,127.154163868631,37.5550431648147
세븐일레븐 S굽은다리역점,서울 강동구 명일동 345-12,서울 강동구 양재대로 지하 1572,127.14296914789105,37.54573012263343
골드그린마트,서울 강동구 강일동 677,서울 강동구 아리수로91길 24-9,127.173436223054,37.5653778808775
쿡쿡쿡 고덕점,서울 강동구 고덕동 210-1,서울 강동구 고덕로 399,127.16967848081,37.5574401631642
쉐프엠 서울상일점,서울 강동구 상일동 520,서울 강동구 고덕로 380,127.16813259974202,37.556480110467895
메가MGC커피 암사브라운스톤점,서울 강동구 천호동 288-29,서울 강동구 상암로 54,127.1292852996529,37.549248978785236
GS25 암사상암점,서울 강동구 암사동 491-64,서울 강동구 상암로 75-1,127.131635472149,37.5484679198793
국보성,서울 강동구 둔촌동 59-3,서울 강동구 명일로13길 15,127.144059693707,37.5338103784387
동보성,서울 강동구 고덕동 312,서울 강동구 고덕로61길 35,127.152754435106,37.5564937994542
동보성,서울 송파구 방이동 89-11,서울 송파구 양재대로 1222,127.132093411244,37.5155412422687
한성관,서울 강동구 명일동 312-152,서울 강동구 양재대로141길 20,127.14283945654245,37.551298447093046
GS25 명일솔베뉴점,서울 강동구 명일동 312-94,서울 강동구 양재대로 1640,127.144273514148,37.5520057886012
CU 강동그라시움점,서울 강동구 고덕동 189,서울 강동구 고덕로83길 42,127.16872997713989,37.55890744328986
CU강동그라시움점 ATM,서울 강동구 고덕동 189,서울 강동구 고덕로83길 42,127.16875155616074,37.558940749299026
CU 그라시움점,서울 강동구 고덕동 693,서울 강동구 고덕로 353,127.16449535835552,37.55708439651426
세븐일레븐 암사구천면로점,서울 강동구 암사동 422-13,서울 강동구 구천면로 361,127.1388071136163,37.550578854124126
스시상,서울 강동구 고덕동 195,서울 강동구 상일로17길 29-5,127.169246542798,37.5586156821968
우리농산물,서울 강동구 암사동 454-12,서울 강동구 고덕로24길 37,127.13553188283294,37.55296309446024
우리농산물,서울 강동구 길동 390-9,서울 강동구 양재대로 1470,127.139926970376,37.5369994814912
우리농산물할인매장,서울 강동구 명일동 333-1,서울 강동구 양재대로138길 14,127.144538025198,37.5495051967157
우리농산물직판장,서울 강동구 암사동 464-2,서울 강동구 고덕로10길 49,127.129646158212,37.5524381151649
우리농산물할인점,서울 강동구 성내동 559-5,서울 강동구 성안로3길 108,127.12422778887,37.52797639978
오아시스마켓 암사캐슬점,서울 강동구 암사동 414-18,서울 강동구 고덕로 133,127.140347013636,37.5552532099867
복호두 강동상일점,서울 강동구 고덕동 694,서울 강동구 고덕로 385,127.168406205478,37.5573626970192
GS25 명일점,서울 강동구 명일동 315-13,서울 강동구 구천면로 427,127.14621020559,37.5504654035533
늘봄약국,서울 송파구 풍납동 402-4,서울 송파구 토성로 78,127.11831341715609,37.528076176962145
나주곰탕노안집 서울직영점,서울 강동구 상일동 501,서울 강동구 상일로10길 36,127.174095003745,37.550795189379
버브비,서울 강동구 상일동 269-7,서울 강동구 상일로5길 8,127.172601885546,37.5491251302008
버브비 고덕점,서울 강동구 고덕동 253-3,서울 강동구 아리수로74길 35-33,127.16266443188202,37.560846790154265
죠스떡볶이 명일역점,서울 강동구 명일동 312-92,서울 강동구 양재대로 1627,127.14379272160866,37.55091706908883
죠스떡볶이 강동역점,서울 강동구 천호동 155-5,서울 강동구 성안로 155,127.13491929584939,37.537077388869875
죠스떡볶이 연세상일점,서울 강동구 고덕동 210-1,서울 강동구 고덕로 399,127.16967848081,37.5574401631642
죠스떡볶이 상일점,서울 강동구 상일동 501,서울 강동구 상일로10길 36,127.1740859525764,37.550796103721154
CU 천호우성점,서울 강동구 천호동 530,서울 강동구 구천면로 232,127.13020129956999,37.541080419866624
두레통닭 고덕점,서울 강동구 명일동 46-2,서울 강동구 고덕로 262,127.15450628600017,37.554803052059235
CU 강동은혜점,서울 강동구 암사동 489-66,서울 강동구 상암로 97,127.133788565969,37.5476149577355
GS25 고덕시티점,서울 강동구 명일동 47-2,서울 강동구 동남로75길 27,127.154636950914,37.5539577458643
